LANDSAT 9               
1 49260U 21088A   24296.20994607  .00001021  00000+0  23678-3 0  9992
2 49260  98.2192   4.2085 0001180  77.1066 283.0264 14.57100963163180
